{"type": "FeatureCollection", "features": [ {"type": "Feature", "properties": {"norad_id": 29808, "name": "FENGYUN 1C DEB", "group": "fengyun-1c-debris", "lat": 64.23367356306595, "lon": 122.35046597365795, "alt_km": 449.47768796736636, "timestamp": "2025-12-27T17:24:57.676731+00:00", "meta": {"OBJECT_NAME": "FENGYUN 1C DEB", "OBJECT_ID": "1999-025DA", "EPOCH": "2025-12-27T08:04:57.645120", "MEAN_MOTION": 15.32469351, "ECCENTRICITY": 0.0019812, "INCLINATION": 99.0109, "RA_OF_ASC_NODE": 282.6839, "ARG_OF_PERICENTER": 83.2427, "MEAN_ANOMALY": 46.4077, "EPHEMERIS_TYPE": 0, "CLASSIFICATION_TYPE": "U", "NORAD_CAT_ID": 29808, "ELEMENT_SET_NO": 999, "REV_AT_EPOCH": 98448, "BSTAR": 0.016747, "MEAN_MOTION_DOT": 0.0056807, "MEAN_MOTION_DDOT": 0}, "tle": {"line1": "1 29808U 99025DA  25361.33677830  .00568070  00000+0  16747-1 0  9997", "line2": "2 29808  99.0109 282.6839 0019812  83.2427  46.4077 15.32469351984482"}}, "geometry": {"type": "Point", "coordinates": [122.35046597365795, 64.23367356306595]}}, {"type": "Feature", "properties": {"norad_id": 29809, "name": "FENGYUN 1C DEB", "group": "fengyun-1c-debris", "lat": 29.95101983436861, "lon": -39.20661041767457, "alt_km": 727.7186728663592, "timestamp": "2025-12-27T17:24:57.676741+00:00", "meta": {"OBJECT_NAME": "FENGYUN 1C DEB", "OBJECT_ID": "1999-025DB", "EPOCH": "2025-12-27T04:05:16.874880", "MEAN_MOTION": 14.4663242, "ECCENTRICITY": 0.01153099, "INCLINATION": 98.8622, "RA_OF_ASC_NODE": 325.3706, "ARG_OF_PERICENTER": 306.6166, "MEAN_ANOMALY": 72.0698, "EPHEMERIS_TYPE": 0, "CLASSIFICATION_TYPE": "U", "NORAD_CAT_ID": 29809, "ELEMENT_SET_NO": 999, "REV_AT_EPOCH": 99676, "BSTAR": 0.00041076943, "MEAN_MOTION_DOT": 1.556e-05, "MEAN_MOTION_DDOT": 0}, "tle": {"line1": "1 29809U 99025DB  25361.17033420  .00001556  00000+0  41077-3 0  9998", "line2": "2 29809  98.8622 325.3706 0115309 306.6166  72.0698 14.46632420996769"}}, "geometry": {"type": "Point", "coordinates": [-39.20661041767457, 29.95101983436861]}}, {"type": "Feature", "properties": {"norad_id": 29810, "name": "FENGYUN 1C DEB", "group": "fengyun-1c-debris", "lat": -11.182742614204486, "lon": -142.45637657822115, "alt_km": 837.4345679594571, "timestamp": "2025-12-27T17:24:57.676751+00:00", "meta": {"OBJECT_NAME": "FENGYUN 1C DEB", "OBJECT_ID": "1999-025DC", "EPOCH": "2025-12-27T01:32:13.350624", "MEAN_MOTION": 14.29149903, "ECCENTRICITY": 0.00662866, "INCLINATION": 99.2052, "RA_OF_ASC_NODE": 38.6825, "ARG_OF_PERICENTER": 337.6385, "MEAN_ANOMALY": 51.9055, "EPHEMERIS_TYPE": 0, "CLASSIFICATION_TYPE": "U", "NORAD_CAT_ID": 29810, "ELEMENT_SET_NO": 999, "REV_AT_EPOCH": 98582, "BSTAR": 0.00029472169, "MEAN_MOTION_DOT": 7.16e-06, "MEAN_MOTION_DDOT": 0}, "tle": {"line1": "1 29810U 99025DC  25361.06404341  .00000716  00000+0  29472-3 0  9994", "line2": "2 29810  99.2052  38.6825 0066286 337.6385  51.9055 14.29149903985823"}}, "geometry": {"type": "Point", "coordinates": [-142.45637657822115, -11.182742614204486]}}, {"type": "Feature", "properties": {"norad_id": 29812, "name": "FENGYUN 1C DEB", "group": "fengyun-1c-debris", "lat": 47.89906309656909, "lon": 179.96618596118387, "alt_km": 938.2928319724315, "timestamp": "2025-12-27T17:24:57.676761+00:00", "meta": {"OBJECT_NAME": "FENGYUN 1C DEB", "OBJECT_ID": "1999-025DE", "EPOCH": "2025-12-27T12:19:01.463232", "MEAN_MOTION": 14.02039752, "ECCENTRICITY": 0.0143577, "INCLINATION": 98.3499, "RA_OF_ASC_NODE": 189.1255, "ARG_OF_PERICENTER": 286.1822, "MEAN_ANOMALY": 129.3469, "EPHEMERIS_TYPE": 0, "CLASSIFICATION_TYPE": "U", "NORAD_CAT_ID": 29812, "ELEMENT_SET_NO": 999, "REV_AT_EPOCH": 96379, "BSTAR": 0.0011977, "MEAN_MOTION_DOT": 1.96e-05, "MEAN_MOTION_DDOT": 0}, "tle": {"line1": "1 29812U 99025DE  25361.51321138  .00001960  00000+0  11977-2 0  9990", "line2": "2 29812  98.3499 189.1255 0143577 286.1822 129.3469 14.02039752963794"}}, "geometry": {"type": "Point", "coordinates": [179.96618596118387, 47.89906309656909]}}, {"type": "Feature", "properties": {"norad_id": 29813, "name": "FENGYUN 1C DEB", "group": "fengyun-1c-debris", "lat": 75.33378957585361, "lon": -14.814338940130671, "alt_km": 855.6781321135695, "timestamp": "2025-12-27T17:24:57.676772+00:00", "meta": {"OBJECT_NAME": "FENGYUN 1C DEB", "OBJECT_ID": "1999-025DF", "EPOCH": "2025-12-27T00:08:50.544384", "MEAN_MOTION": 14.09454814, "ECCENTRICITY": 0.00124658, "INCLINATION": 98.7267, "RA_OF_ASC_NODE": 20.4244, "ARG_OF_PERICENTER": 180.6469, "MEAN_ANOMALY": 208.8144, "EPHEMERIS_TYPE": 0, "CLASSIFICATION_TYPE": "U", "NORAD_CAT_ID": 29813, "ELEMENT_SET_NO": 999, "REV_AT_EPOCH": 97461, "BSTAR": 0.00010298648, "MEAN_MOTION_DOT": 1.37e-06, "MEAN_MOTION_DDOT": 0}, "tle": {"line1": "1 29813U 99025DF  25361.00614056  .00000137  00000+0  10299-3 0  9991", "line2": "2 29813  98.7267  20.4244 0012465 180.6469 208.8144 14.09454814974616"}}, "geometry": {"type": "Point", "coordinates": [-14.814338940130671, 75.33378957585361]}}, {"type": "Feature", "properties": {"norad_id": 29815, "name": "FENGYUN 1C DEB", "group": "fengyun-1c-debris", "lat": 76.42993267332277, "lon": -134.1597713805969, "alt_km": 546.7096060700715, "timestamp": "2025-12-27T17:24:57.676782+00:00", "meta": {"OBJECT_NAME": "FENGYUN 1C DEB", "OBJECT_ID": "1999-025DH", "EPOCH": "2025-12-27T12:02:48.134400", "MEAN_MOTION": 14.63811635, "ECCENTRICITY": 0.0184131, "INCLINATION": 98.0561, "RA_OF_ASC_NODE": 9.6923, "ARG_OF_PERICENTER": 88.9748, "MEAN_ANOMALY": 273.2545, "EPHEMERIS_TYPE": 0, "CLASSIFICATION_TYPE": "U", "NORAD_CAT_ID": 29815, "ELEMENT_SET_NO": 999, "REV_AT_EPOCH": 67, "BSTAR": 0.00061748, "MEAN_MOTION_DOT": 4.073e-05, "MEAN_MOTION_DDOT": 0}, "tle": {"line1": "1 29815U 99025DH  25361.50194600  .00004073  00000+0  61748-3 0  9994", "line2": "2 29815  98.0561   9.6923 0184131  88.9748 273.2545 14.63811635   676"}}, "geometry": {"type": "Point", "coordinates": [-134.1597713805969, 76.42993267332277]}}, {"type": "Feature", "properties": {"norad_id": 29816, "name": "FENGYUN 1C DEB", "group": "fengyun-1c-debris", "lat": -55.53880634342274, "lon": -124.06080927048548, "alt_km": 918.2932539037429, "timestamp": "2025-12-27T17:24:57.676792+00:00", "meta": {"OBJECT_NAME": "FENGYUN 1C DEB", "OBJECT_ID": "1999-025DJ", "EPOCH": "2025-12-27T04:56:29.251104", "MEAN_MOTION": 14.44418564, "ECCENTRICITY": 0.02380437, "INCLINATION": 98.9924, "RA_OF_ASC_NODE": 222.0487, "ARG_OF_PERICENTER": 134.0609, "MEAN_ANOMALY": 347.7488, "EPHEMERIS_TYPE": 0, "CLASSIFICATION_TYPE": "U", "NORAD_CAT_ID": 29816, "ELEMENT_SET_NO": 999, "REV_AT_EPOCH": 98396, "BSTAR": 0.00086452407, "MEAN_MOTION_DOT": 4.163e-05, "MEAN_MOTION_DDOT": 0}, "tle": {"line1": "1 29816U 99025DJ  25361.20589411  .00004163  00000+0  86452-3 0  9999", "line2": "2 29816  98.9924 222.0487 0238043 134.0609 347.7488 14.44418564983964"}}, "geometry": {"type": "Point", "coordinates": [-124.06080927048548, -55.53880634342274]}}, {"type": "Feature", "properties": {"norad_id": 29817, "name": "FENGYUN 1C DEB", "group": "fengyun-1c-debris", "lat": 59.372858807453866, "lon": -24.440340539730983, "alt_km": 838.7055467257242, "timestamp": "2025-12-27T17:24:57.676802+00:00", "meta": {"OBJECT_NAME": "FENGYUN 1C DEB", "OBJECT_ID": "1999-025DK", "EPOCH": "2025-12-27T12:34:48.389952", "MEAN_MOTION": 14.14271806, "ECCENTRICITY": 0.0011483, "INCLINATION": 98.5587, "RA_OF_ASC_NODE": 350.1026, "ARG_OF_PERICENTER": 333.1456, "MEAN_ANOMALY": 141.941, "EPHEMERIS_TYPE": 0, "CLASSIFICATION_TYPE": "U", "NORAD_CAT_ID": 29817, "ELEMENT_SET_NO": 999, "REV_AT_EPOCH": 97604, "BSTAR": 0.00039118, "MEAN_MOTION_DOT": 7.06e-06, "MEAN_MOTION_DDOT": 0}, "tle": {"line1": "1 29817U 99025DK  25361.52417118  .00000706  00000+0  39118-3 0  9995", "line2": "2 29817  98.5587 350.1026 0011483 333.1456 141.9410 14.14271806976040"}}, "geometry": {"type": "Point", "coordinates": [-24.440340539730983, 59.372858807453866]}}, {"type": "Feature", "properties": {"norad_id": 29818, "name": "FENGYUN 1C DEB", "group": "fengyun-1c-debris", "lat": -9.785352724084696, "lon": -120.0273686976849, "alt_km": 799.6737715023055, "timestamp": "2025-12-27T17:24:57.676813+00:00", "meta": {"OBJECT_NAME": "FENGYUN 1C DEB", "OBJECT_ID": "1999-025DL", "EPOCH": "2025-12-27T12:39:52.282080", "MEAN_MOTION": 14.04514472, "ECCENTRICITY": 0.011451, "INCLINATION": 98.7205, "RA_OF_ASC_NODE": 238.2656, "ARG_OF_PERICENTER": 344.4036, "MEAN_ANOMALY": 85.1923, "EPHEMERIS_TYPE": 0, "CLASSIFICATION_TYPE": "U", "NORAD_CAT_ID": 29818, "ELEMENT_SET_NO": 999, "REV_AT_EPOCH": 97017, "BSTAR": 0.00035616, "MEAN_MOTION_DOT": 5.6e-06, "MEAN_MOTION_DDOT": 0}, "tle": {"line1": "1 29818U 99025DL  25361.52768845  .00000560  00000+0  35616-3 0  9999", "line2": "2 29818  98.7205 238.2656 0114510 344.4036  85.1923 14.04514472970173"}}, "geometry": {"type": "Point", "coordinates": [-120.0273686976849, -9.785352724084696]}}, {"type": "Feature", "properties": {"norad_id": 29819, "name": "FENGYUN 1C DEB", "group": "fengyun-1c-debris", "lat": -22.962936301797814, "lon": -11.414684115924855, "alt_km": 797.7247544295542, "timestamp": "2025-12-27T17:24:57.676823+00:00", "meta": {"OBJECT_NAME": "FENGYUN 1C DEB", "OBJECT_ID": "1999-025DM", "EPOCH": "2025-12-27T11:15:02.045952", "MEAN_MOTION": 14.02218668, "ECCENTRICITY": 0.0191515, "INCLINATION": 98.7348, "RA_OF_ASC_NODE": 344.604, "ARG_OF_PERICENTER": 26.0445, "MEAN_ANOMALY": 96.3679, "EPHEMERIS_TYPE": 0, "CLASSIFICATION_TYPE": "U", "NORAD_CAT_ID": 29819, "ELEMENT_SET_NO": 999, "REV_AT_EPOCH": 96826, "BSTAR": 0.00039648, "MEAN_MOTION_DOT": 6.71e-06, "MEAN_MOTION_DDOT": 0}, "tle": {"line1": "1 29819U 99025DM  25361.46877368  .00000671  00000+0  39648-3 0  9996", "line2": "2 29819  98.7348 344.6040 0191515  26.0445  96.3679 14.02218668968263"}}, "geometry": {"type": "Point", "coordinates": [-11.414684115924855, -22.962936301797814]}}]}